STARLINK-31486          
1 59181U 24045D   26068.06651491  .00000631  00000+0  32457-4 0  9997
2 59181  43.0039  92.8157 0001946 286.8405  73.2233 15.27575600113104
TEVEL2-2                
1 63219U 25052K   26068.64848259  .00020339  00000+0  69428-3 0  9991
2 63219  97.3987 324.7700 0004693 105.7930 254.3828 15.30343745 54855
